{"type": "FeatureCollection", "features": [ {"type": "Feature", "properties": {"norad_id": 40664, "name": "SKY MEXICO-1", "group": "intelsat", "lat": 0.018189730656249594, "lon": 123.83254127055093, "alt_km": 35795.23143714168, "timestamp": "2025-12-20T07:33:50.471656+00:00", "meta": {"OBJECT_NAME": "SKY MEXICO-1", "OBJECT_ID": "2015-026B", "EPOCH": "2025-12-19T09:43:10.843104", "MEAN_MOTION": 1.00272289, "ECCENTRICITY": 0.000231, "INCLINATION": 0.0116, "RA_OF_ASC_NODE": 321.764, "ARG_OF_PERICENTER": 322.6243, "MEAN_ANOMALY": 230.8994, "EPHEMERIS_TYPE": 0, "CLASSIFICATION_TYPE": "U", "NORAD_CAT_ID": 40664, "ELEMENT_SET_NO": 999, "REV_AT_EPOCH": 3865, "BSTAR": 0, "MEAN_MOTION_DOT": -2.1e-06, "MEAN_MOTION_DDOT": 0}, "tle": {"line1": "1 40664U 15026B   25353.40498661 -.00000210  00000+0  00000+0 0  9992", "line2": "2 40664   0.0116 321.7640 0002310 322.6243 230.8994  1.00272289 38659"}}, "geometry": {"type": "Point", "coordinates": [123.83254127055093, 0.018189730656249594]}}, {"type": "Feature", "properties": {"norad_id": 40874, "name": "INTELSAT 34 (IS-34)", "group": "intelsat", "lat": 0.015173345418660604, "lon": 147.09874388853692, "alt_km": 35783.29115018564, "timestamp": "2025-12-20T07:33:50.471668+00:00", "meta": {"OBJECT_NAME": "INTELSAT 34 (IS-34)", "OBJECT_ID": "2015-039A", "EPOCH": "2025-12-19T19:50:51.586080", "MEAN_MOTION": 1.00272065, "ECCENTRICITY": 6.617e-05, "INCLINATION": 0.0164, "RA_OF_ASC_NODE": 342.9377, "ARG_OF_PERICENTER": 169.2315, "MEAN_ANOMALY": 178.7132, "EPHEMERIS_TYPE": 0, "CLASSIFICATION_TYPE": "U", "NORAD_CAT_ID": 40874, "ELEMENT_SET_NO": 999, "REV_AT_EPOCH": 3782, "BSTAR": 0, "MEAN_MOTION_DOT": -2.61e-06, "MEAN_MOTION_DDOT": 0}, "tle": {"line1": "1 40874U 15039A   25353.82698595 -.00000261  00000+0  00000+0 0  9999", "line2": "2 40874   0.0164 342.9377 0000661 169.2315 178.7132  1.00272065 37823"}}, "geometry": {"type": "Point", "coordinates": [147.09874388853692, 0.015173345418660604]}}, {"type": "Feature", "properties": {"norad_id": 41581, "name": "INTELSAT 31 (IS-31)", "group": "intelsat", "lat": 0.011952689658626765, "lon": 107.5185302074262, "alt_km": 35787.3911260101, "timestamp": "2025-12-20T07:33:50.471679+00:00", "meta": {"OBJECT_NAME": "INTELSAT 31 (IS-31)", "OBJECT_ID": "2016-035A", "EPOCH": "2025-12-19T12:19:46.200288", "MEAN_MOTION": 1.0026847, "ECCENTRICITY": 0.0002165, "INCLINATION": 0.0258, "RA_OF_ASC_NODE": 271.2551, "ARG_OF_PERICENTER": 288.2416, "MEAN_ANOMALY": 338.7582, "EPHEMERIS_TYPE": 0, "CLASSIFICATION_TYPE": "U", "NORAD_CAT_ID": 41581, "ELEMENT_SET_NO": 999, "REV_AT_EPOCH": 3488, "BSTAR": 0, "MEAN_MOTION_DOT": -1.26e-06, "MEAN_MOTION_DDOT": 0}, "tle": {"line1": "1 41581U 16035A   25353.51372917 -.00000126  00000+0  00000+0 0  9995", "line2": "2 41581   0.0258 271.2551 0002165 288.2416 338.7582  1.00268470 34881"}}, "geometry": {"type": "Point", "coordinates": [107.5185302074262, 0.011952689658626765]}}, {"type": "Feature", "properties": {"norad_id": 41747, "name": "INTELSAT 36 (IS-36)", "group": "intelsat", "lat": -0.037492504887589664, "lon": -88.92321380509989, "alt_km": 35783.363187520896, "timestamp": "2025-12-20T07:33:50.471691+00:00", "meta": {"OBJECT_NAME": "INTELSAT 36 (IS-36)", "OBJECT_ID": "2016-053A", "EPOCH": "2025-12-19T20:26:10.703328", "MEAN_MOTION": 1.00272409, "ECCENTRICITY": 0.00013071, "INCLINATION": 0.0105, "RA_OF_ASC_NODE": 10.1169, "ARG_OF_PERICENTER": 323.6744, "MEAN_ANOMALY": 129.9347, "EPHEMERIS_TYPE": 0, "CLASSIFICATION_TYPE": "U", "NORAD_CAT_ID": 41747, "ELEMENT_SET_NO": 999, "REV_AT_EPOCH": 3415, "BSTAR": 0, "MEAN_MOTION_DOT": 0, "MEAN_MOTION_DDOT": 0}, "tle": {"line1": "1 41747U 16053A   25353.85151277  .00000000  00000+0  00000+0 0  9990", "line2": "2 41747   0.0105  10.1169 0001307 323.6744 129.9347  1.00272409 34152"}}, "geometry": {"type": "Point", "coordinates": [-88.92321380509989, -0.037492504887589664]}}, {"type": "Feature", "properties": {"norad_id": 41945, "name": "INTELSAT 32E (IS-32E)", "group": "intelsat", "lat": 0.03628711675621538, "lon": 159.41819078265752, "alt_km": 35788.63245326092, "timestamp": "2025-12-20T07:33:50.471702+00:00", "meta": {"OBJECT_NAME": "INTELSAT 32E (IS-32E)", "OBJECT_ID": "2017-007B", "EPOCH": "2025-12-19T06:12:37.307232", "MEAN_MOTION": 1.00269829, "ECCENTRICITY": 7.1e-05, "INCLINATION": 0.0325, "RA_OF_ASC_NODE": 74.0804, "ARG_OF_PERICENTER": 315.5885, "MEAN_ANOMALY": 108.4146, "EPHEMERIS_TYPE": 0, "CLASSIFICATION_TYPE": "U", "NORAD_CAT_ID": 41945, "ELEMENT_SET_NO": 999, "REV_AT_EPOCH": 3242, "BSTAR": 0, "MEAN_MOTION_DOT": -2.44e-06, "MEAN_MOTION_DDOT": 0}, "tle": {"line1": "1 41945U 17007B   25353.25876513 -.00000244  00000+0  00000+0 0  9992", "line2": "2 41945   0.0325  74.0804 0000710 315.5885 108.4146  1.00269829 32423"}}, "geometry": {"type": "Point", "coordinates": [159.41819078265752, 0.03628711675621538]}}, {"type": "Feature", "properties": {"norad_id": 42818, "name": "INTELSAT 35E (IS-35E)", "group": "intelsat", "lat": 0.003583345648854597, "lon": 168.09442763173323, "alt_km": 35788.23095278026, "timestamp": "2025-12-20T07:33:50.471714+00:00", "meta": {"OBJECT_NAME": "INTELSAT 35E (IS-35E)", "OBJECT_ID": "2017-041A", "EPOCH": "2025-12-19T11:20:21.674976", "MEAN_MOTION": 1.00271336, "ECCENTRICITY": 0.0001837, "INCLINATION": 0.0061, "RA_OF_ASC_NODE": 84.092, "ARG_OF_PERICENTER": 188.559, "MEAN_ANOMALY": 311.2747, "EPHEMERIS_TYPE": 0, "CLASSIFICATION_TYPE": "U", "NORAD_CAT_ID": 42818, "ELEMENT_SET_NO": 999, "REV_AT_EPOCH": 3101, "BSTAR": 0, "MEAN_MOTION_DOT": -2.13e-06, "MEAN_MOTION_DDOT": 0}, "tle": {"line1": "1 42818U 17041A   25353.47247309 -.00000213  00000+0  00000+0 0  9995", "line2": "2 42818   0.0061  84.0920 0001837 188.5590 311.2747  1.00271336 31013"}}, "geometry": {"type": "Point", "coordinates": [168.09442763173323, 0.003583345648854597]}}, {"type": "Feature", "properties": {"norad_id": 42950, "name": "INTELSAT 37E (IS-37E)", "group": "intelsat", "lat": 0.004197896355587856, "lon": -175.452068, "alt_km": 35783.34376411114, "timestamp": "2025-12-20T07:33:50.471726+00:00", "meta": {"OBJECT_NAME": "INTELSAT 37E (IS-37E)", "OBJECT_ID": "2017-059A", "EPOCH": "2025-12-19T09:45:18.086976", "MEAN_MOTION": 1.00269424, "ECCENTRICITY": 0.000296, "INCLINATION": 0.0268, "RA_OF_ASC_NODE": 16.2864, "ARG_OF_PERICENTER": 242.3064, "MEAN_ANOMALY": 317.9748, "EPHEMERIS_TYPE": 0, "CLASSIFICATION_TYPE": "U", "NORAD_CAT_ID": 42950, "ELEMENT_SET_NO": 999, "REV_AT_EPOCH": 3026, "BSTAR": 0, "MEAN_MOTION_DOT": 0, "MEAN_MOTION_DDOT": 0}, "tle": {"line1": "1 42950U 17059A   25353.40645934  .00000000  00000+0  00000+0 0  9993", "line2": "2 42950   0.0268  16.2864 0002960 242.3064 317.9748  1.00269424 30261"}}, "geometry": {"type": "Point", "coordinates": [-175.452068, 0.004197896355587856]}}, {"type": "Feature", "properties": {"norad_id": 43632, "name": "AZERSPACE 2 (IS-38)", "group": "intelsat", "lat": -0.04354631363149666, "lon": -112.28977530771071, "alt_km": 35781.920353423695, "timestamp": "2025-12-20T07:33:50.471738+00:00", "meta": {"OBJECT_NAME": "AZERSPACE 2 (IS-38)", "OBJECT_ID": "2018-074A", "EPOCH": "2025-12-19T20:49:38.856576", "MEAN_MOTION": 1.00270657, "ECCENTRICITY": 0.00011478, "INCLINATION": 0.0175, "RA_OF_ASC_NODE": 340.8081, "ARG_OF_PERICENTER": 291.2785, "MEAN_ANOMALY": 174.1513, "EPHEMERIS_TYPE": 0, "CLASSIFICATION_TYPE": "U", "NORAD_CAT_ID": 43632, "ELEMENT_SET_NO": 999, "REV_AT_EPOCH": 2665, "BSTAR": 0, "MEAN_MOTION_DOT": 1.61e-06, "MEAN_MOTION_DDOT": 0}, "tle": {"line1": "1 43632U 18074A   25353.86781084  .00000161  00000+0  00000+0 0  9994", "line2": "2 43632   0.0175 340.8081 0001147 291.2785 174.1513  1.00270657 26653"}}, "geometry": {"type": "Point", "coordinates": [-112.28977530771071, -0.04354631363149666]}}, {"type": "Feature", "properties": {"norad_id": 43633, "name": "HORIZONS-3E", "group": "intelsat", "lat": 0.006266667964552674, "lon": 11.59879111000231, "alt_km": 35784.56112604245, "timestamp": "2025-12-20T07:33:50.471749+00:00", "meta": {"OBJECT_NAME": "HORIZONS-3E", "OBJECT_ID": "2018-074B", "EPOCH": "2025-12-19T11:25:38.578080", "MEAN_MOTION": 1.00273661, "ECCENTRICITY": 4.75e-05, "INCLINATION": 0.0419, "RA_OF_ASC_NODE": 184.4159, "ARG_OF_PERICENTER": 126.4195, "MEAN_ANOMALY": 117.8859, "EPHEMERIS_TYPE": 0, "CLASSIFICATION_TYPE": "U", "NORAD_CAT_ID": 43633, "ELEMENT_SET_NO": 999, "REV_AT_EPOCH": 2653, "BSTAR": 0, "MEAN_MOTION_DOT": -5e-08, "MEAN_MOTION_DDOT": 0}, "tle": {"line1": "1 43633U 18074B   25353.47614095 -.00000005  00000+0  00000+0 0  9997", "line2": "2 43633   0.0419 184.4159 0000475 126.4195 117.8859  1.00273661 26532"}}, "geometry": {"type": "Point", "coordinates": [11.59879111000231, 0.006266667964552674]}}, {"type": "Feature", "properties": {"norad_id": 44333, "name": "AT&T T-16", "group": "intelsat", "lat": 0.03264335398964249, "lon": 101.72922961220219, "alt_km": 35783.27743440536, "timestamp": "2025-12-20T07:33:50.471761+00:00", "meta": {"OBJECT_NAME": "AT&T T-16", "OBJECT_ID": "2019-034A", "EPOCH": "2025-12-19T13:25:39.897984", "MEAN_MOTION": 1.00270126, "ECCENTRICITY": 0.00011499, "INCLINATION": 0.0216, "RA_OF_ASC_NODE": 60.6149, "ARG_OF_PERICENTER": 88.5847, "MEAN_ANOMALY": 39.7646, "EPHEMERIS_TYPE": 0, "CLASSIFICATION_TYPE": "U", "NORAD_CAT_ID": 44333, "ELEMENT_SET_NO": 999, "REV_AT_EPOCH": 2383, "BSTAR": 0, "MEAN_MOTION_DOT": -9.1e-07, "MEAN_MOTION_DDOT": 0}, "tle": {"line1": "1 44333U 19034A   25353.55948956 -.00000091  00000+0  00000+0 0  9992", "line2": "2 44333   0.0216  60.6149 0001149  88.5847  39.7646  1.00270126 23839"}}, "geometry": {"type": "Point", "coordinates": [101.72922961220219, 0.03264335398964249]}}]}